ONEWEB-0012             
1 44057U 19010A   23242.77752380 -.00000046  00000+0 -15284-3 0  9997
2 44057  87.8988  72.1154 0002320 114.1765 245.9608 13.16594041217167
ONEWEB-0010             
1 44058U 19010B   23242.80284478  .00000032  00000+0  51215-4 0  9998
2 44058  87.8980  72.0965 0002443  93.7546 266.3864 13.16596335217219
ONEWEB-0008             
1 44059U 19010C   23242.82818950  .00000175  00000+0  42394-3 0  9994
2 44059  87.8991  72.0837 0001468  84.1725 275.9573 13.16594865217331
ONEWEB-0007             
1 44060U 19010D   23242.88886414  .00001742  00000+0  45929-2 0  9999
2 44060  87.8956 102.5534 0001971  98.0846 262.0508 13.15538398217090
ONEWEB-0006             
1 44061U 19010E   23242.87617590 -.00000087  00000+0 -26603-3 0  9998
2 44061  87.8958 102.5590 0002033  89.9232 270.2131 13.15549908217141
ONEWEB-0011             
1 44062U 19010F   23242.86352007 -.00000058  00000+0 -18909-3 0  9995
2 44062  87.8966 102.5618 0001431  84.1434 275.9859 13.15547556217139
ONEWEB-0013             
1 45131U 20008A   23242.74680668 -.00000001  00000+0 -38181-4 0  9999
2 45131  87.9084 257.6871 0001515 122.8594 237.2679 13.09378952172396
ONEWEB-0017             
1 45132U 20008B   23242.71893051 -.00000794  00000+0 -23102-2 0  9993
2 45132  87.8812 239.1249 0002209  88.6115 271.5266 13.10373733174173
